[{"OBJECT_NAME":"STARLINK-31986","OBJECT_ID":"2024-111D","EPOCH":"2026-03-09T07:19:25.571712","MEAN_MOTION":15.30197134,"ECCENTRICITY":0.00012613,"INCLINATION":53.1603,"RA_OF_ASC_NODE":77.4785,"ARG_OF_PERICENTER":77.5395,"MEAN_ANOMALY":282.5747,"EPHEMERIS_TYPE":0,"CLASSIFICATION_TYPE":"U","NORAD_CAT_ID":60019,"ELEMENT_SET_NO":999,"REV_AT_EPOCH":9898,"BSTAR":3.6426625e-5,"MEAN_MOTION_DOT":7.2e-6,"MEAN_MOTION_DDOT":0},{"OBJECT_NAME":"OBJECT D","OBJECT_ID":"2024-174D","EPOCH":"2026-03-10T00:15:10.483200","MEAN_MOTION":15.28039787,"ECCENTRICITY":0.00110644,"INCLINATION":97.4441,"RA_OF_ASC_NODE":80.4677,"ARG_OF_PERICENTER":212.9968,"MEAN_ANOMALY":147.0582,"EPHEMERIS_TYPE":0,"CLASSIFICATION_TYPE":"U","NORAD_CAT_ID":61241,"ELEMENT_SET_NO":999,"REV_AT_EPOCH":8076,"BSTAR":0.00036340099,"MEAN_MOTION_DOT":9.884e-5,"MEAN_MOTION_DDOT":0}]
